440 Theodora,e,1.59761,292.42089,178.91388,2.2102702,0,0.1078133,105.03819,1/22/1999,2000.0,11.5,0.15
441 Bathilde,e,8.14482,253.9748,202.47117,2.8067815,0,0.081304,85.3593,1/22/1999,2000.0,8.51,0.15
442 Eichsfeldia,e,6.06145,135.06484,85.41143,2.3445375,0,0.0721992,229.27107,1/22/1999,2000.0,10.03,0.15
443 Photographica,e,4.23124,175.611,348.60437,2.2150822,0,0.0408147,97.01493,1/22/1999,2000.0,10.28,0.15
444 Gyptis,e,10.27051,195.92173,154.03969,2.7689298,0,0.1760995,85.41647,1/22/1999,2000.0,7.83,0.22
445 Edna,e,21.42378,292.90449,77.82018,3.2012642,0,0.1895668,171.9748,1/22/1999,2000.0,9.29,0.15
446 Aeternitas,e,10.61354,42.35828,278.71045,2.7873374,0,0.1264229,169.1345,1/22/1999,2000.0,8.9,0.15
447 Valentine,e,4.79645,72.14801,314.31031,2.985603,0,0.0393493,84.69048,1/22/1999,2000.0,8.99,0.15
449 Hamburga,e,3.09055,86.06331,46.64934,2.553177,0,0.1708551,25.7316,1/22/1999,2000.0,9.47,0.15
451 Patientia,e,15.2326,89.46419,342.83128,3.0605674,0,0.075054,175.34981,1/22/1999,2000.0,6.65,0.19
453 Tea,e,5.55766,11.87884,220.26302,2.1834277,0,0.1089473,163.39143,1/22/1999,2000.0,10.6,0.15
454 Mathesis,e,6.31584,32.59988,176.75839,2.6255691,0,0.113253,57.68002,1/22/1999,2000.0,9.2,0.15
455 Bruchsalia,e,12.03192,76.75821,272.17949,2.6589763,0,0.2909576,204.30142,1/22/1999,2000.0,8.86,0.15
456 Abnoba,e,14.40386,229.51012,5.64621,2.7910683,0,0.1772351,87.45265,1/22/1999,2000.0,9.2,0.15
458 Hercynia,e,12.63457,135.05835,274.5424,2.992652,0,0.2453454,328.12947,1/22/1999,2000.0,9.63,0.15
459 Signe,e,10.28765,29.66449,18.97126,2.6210965,0,0.2075594,44.26394,1/22/1999,2000.0,10.44,0.15
462 Eriphyla,e,3.19097,105.49485,248.28203,2.8721061,0,0.0863385,89.51649,1/22/1999,2000.0,9.23,0.15
463 Lola,e,13.56135,36.67618,329.33628,2.3988687,0,0.2206659,176.68096,1/22/1999,2000.0,11.82,0.15
464 Megaira,e,10.15917,102.76543,257.31897,2.8005648,0,0.2058665,55.79306,1/22/1999,2000.0,9.52,0.15
465 Alekto,e,4.66062,300.82135,285.04091,3.0883322,0,0.2114652,285.08956,1/22/1999,2000.0,9.7,0.15
466 Tisiphone,e,19.16219,291.24399,245.03756,3.3577754,0,0.0807199,258.7447,1/22/1999,2000.0,8.3,0.15
468 Lina,e,0.44359,21.63037,335.4646,3.1335923,0,0.1960995,328.06021,1/22/1999,2000.0,9.83,0.15
469 Argentina,e,11.72097,334.78885,205.72321,3.1580043,0,0.1744885,119.56195,1/22/1999,2000.0,8.62,0.15
470 Kilia,e,7.23463,173.42431,45.16106,2.4044935,0,0.0930845,70.25193,1/22/1999,2000.0,10.07,0.15
471 Papagena,e,14.98611,84.13137,314.86725,2.8879496,0,0.2321651,199.70385,1/22/1999,2000.0,6.73,0.37
472 Roma,e,15.80409,127.45417,295.9413,2.5433212,0,0.0944723,259.01599,1/22/1999,2000.0,8.92,0.15
474 Prudentia,e,8.80615,161.95012,156.28194,2.45271,0,0.2125972,14.05766,1/22/1999,2000.0,10.6,0.15
475 Ocllo,e,18.84926,34.98744,304.60816,2.5904381,0,0.3837163,103.3107,1/22/1999,2000.0,11.88,0.15
476 Hedwig,e,10.94873,286.58813,359.61128,2.6499175,0,0.0747768,255.65482,1/22/1999,2000.0,8.55,0.15
477 Italia,e,5.29535,10.78889,322.4207,2.414672,0,0.1894876,343.63184,1/22/1999,2000.0,10.25,0.15
478 Tergeste,e,13.18196,234.14964,243.14415,3.0151228,0,0.0877029,108.15905,1/22/1999,2000.0,7.98,0.15
479 Caprera,e,8.66364,136.34932,269.4366,2.719022,0,0.2204357,236.26473,1/22/1999,2000.0,9.6,0.15
480 Hansa,e,21.29498,237.48554,213.29348,2.6444773,0,0.0455202,59.34559,1/22/1999,2000.0,8.38,0.15
481 Emita,e,9.86238,67.05415,349.29037,2.7396907,0,0.1580478,191.12545,1/22/1999,2000.0,8.6,0.15
482 Petrina,e,14.47548,179.58382,89.61397,2.9955108,0,0.1022603,148.61846,1/22/1999,2000.0,8.84,0.15
483 Seppina,e,18.66648,174.52254,143.41606,3.4235419,0,0.0527406,311.425,1/22/1999,2000.0,8.33,0.15
484 Pittsburghia,e,12.48844,127.55869,189.99381,2.6670758,0,0.0556067,338.5124,1/22/1999,2000.0,9.86,0.15
485 Genua,e,13.86948,193.93776,271.31373,2.7485027,0,0.1912104,175.69197,1/22/1999,2000.0,8.3,0.15
486 Cremona,e,11.07883,94.40357,123.89056,2.3514357,0,0.1645878,303.78254,1/22/1999,2000.0,10.7,0.15
487 Venetia,e,10.2316,115.12622,280.32348,2.6710943,0,0.0886671,317.60205,1/22/1999,2000.0,8.14,0.15
488 Kreusa,e,11.49592,85.14124,69.34563,3.1489556,0,0.1749789,157.10757,1/22/1999,2000.0,7.81,0.15
489 Comacina,e,12.97843,167.22034,10.39918,3.1533864,0,0.0368159,237.37008,1/22/1999,2000.0,8.32,0.15
490 Veritas,e,9.26913,178.56678,198.68288,3.1742137,0,0.1015113,349.23654,1/22/1999,2000.0,8.32,0.15
491 Carina,e,18.90883,175.72564,239.64901,3.1852896,0,0.0903131,261.41728,1/22/1999,2000.0,8.5,0.15
492 Gismonda,e,1.62689,46.93488,291.01763,3.118689,0,0.1723369,208.87842,1/22/1999,2000.0,9.8,0.15
494 Virtus,e,7.09715,38.68397,211.48302,2.9857668,0,0.059198,8.46175,1/22/1999,2000.0,8.96,0.15
495 Eulalia,e,2.27941,186.68235,206.96284,2.4878002,0,0.1296203,197.61473,1/22/1999,2000.0,10.78,0.15
497 Iva,e,4.8411,6.82505,2.69548,2.850184,0,0.3019615,15.035,1/22/1999,2000.0,10.02,0.11
498 Tokio,e,9.52483,97.72593,240.09418,2.6503953,0,0.2240893,157.80841,1/22/1999,2000.0,8.95,0.15
500 Selinur,e,9.76092,290.30751,74.35185,2.6136233,0,0.1469676,349.76284,1/22/1999,2000.0,9.3,0.15
501 Urhixidur,e,20.88506,357.62138,350.09296,3.159869,0,0.1452251,165.09975,1/22/1999,2000.0,8.9,0.15
502 Sigune,e,25.00463,133.12709,19.53038,2.3829308,0,0.1791648,355.6745,1/22/1999,2000.0,10.77,0.15
503 Evelyn,e,5.02884,69.22607,40.53658,2.7235493,0,0.1755179,136.75634,1/22/1999,2000.0,9.14,0.15
504 Cora,e,12.91797,104.96529,247.02099,2.7217022,0,0.216313,138.8465,1/22/1999,2000.0,9.4,0.15
505 Cava,e,9.824,91.04825,336.15588,2.6834399,0,0.2463971,226.81503,1/22/1999,2000.0,8.61,-0.03
506 Marion,e,17.00128,313.12454,147.74826,3.0434525,0,0.1443246,66.73947,1/22/1999,2000.0,8.85,0.15
507 Laodica,e,9.53375,294.0787,96.14942,3.1593956,0,0.0900426,149.33732,1/22/1999,2000.0,9.1,0.15
508 Princetonia,e,13.36127,44.75539,183.24943,3.1612648,0,0.0186161,354.47896,1/22/1999,2000.0,8.24,0.15
509 Iolanda,e,15.36687,218.03873,153.97066,3.067974,0,0.0885522,158.68448,1/22/1999,2000.0,8.4,0.15
510 Mabella,e,9.51127,203.16929,89.98885,2.6084715,0,0.1943322,214.58659,1/22/1999,2000.0,9.73,0.15
511 Davida,e,15.93846,107.77802,338.8783,3.1710907,0,0.1826401,117.92552,1/22/1999,2000.0,6.22,0.16
512 Taurinensis,e,8.75025,107.2327,248.91578,2.189592,0,0.2537548,122.72772,1/22/1999,2000.0,10.68,0.15
514 Armida,e,3.87442,269.24627,118.60926,3.044933,0,0.0455638,294.5285,1/22/1999,2000.0,9.04,0.15
516 Amherstia,e,12.9547,329.38252,257.38253,2.6759523,0,0.2768039,28.86996,1/22/1999,2000.0,8.27,0.15
517 Edith,e,3.19954,274.89095,137.35826,3.1454601,0,0.191448,359.92368,1/22/1999,2000.0,9.35,0.15
518 Halawe,e,6.73201,204.45251,116.63601,2.5351527,0,0.2236071,257.83324,1/22/1999,2000.0,11,0.15
519 Sylvania,e,11.01094,45.13575,301.82786,2.7918665,0,0.1831944,190.68317,1/22/1999,2000.0,9.14,0.15
521 Brixia,e,10.56109,90.06393,314.9682,2.7424952,0,0.2798122,0.20479,1/22/1999,2000.0,8.31,-0.06
523 Ada,e,4.31965,261.47113,187.03919,2.9628574,0,0.1820173,240.49379,1/22/1999,2000.0,9.6,0.15
524 Fidelio,e,8.21702,326.91938,79.8699,2.6358679,0,0.1279374,161.23865,1/22/1999,2000.0,9.83,0.15
527 Euryanthe,e,9.65683,120.78057,202.74042,2.7260642,0,0.1491997,283.90137,1/22/1999,2000.0,10.1,0.15
530 Turandot,e,8.56241,129.24458,201.49325,3.1825172,0,0.2218535,60.42431,1/22/1999,2000.0,9.29,0.15
532 Herculina,e,16.29437,107.75956,76.27357,2.7753603,0,0.1761852,203.71806,1/22/1999,2000.0,5.81,0.26
535 Montague,e,6.7836,84.90365,69.64964,2.569376,0,0.0248341,68.61336,1/22/1999,2000.0,9.48,0.15
536 Merapi,e,19.38644,59.48764,302.5989,3.5005848,0,0.082659,53.2857,1/22/1999,2000.0,8.08,0.15
537 Pauly,e,9.91536,120.71959,183.75273,3.064315,0,0.236482,208.49355,1/22/1999,2000.0,8.8,0.15
538 Friederike,e,6.48234,141.49928,227.91555,3.1702443,0,0.1567072,234.79803,1/22/1999,2000.0,9.3,0.15
539 Pamina,e,6.80549,274.69842,97.18802,2.7382676,0,0.2119498,265.10393,1/22/1999,2000.0,9.7,0.15
540 Rosamunde,e,5.57746,202.32976,337.36925,2.2188803,0,0.0904065,337.08294,1/22/1999,2000.0,10.76,0.15
542 Susanna,e,12.07912,153.32877,214.78659,2.9065224,0,0.1439879,5.82101,1/22/1999,2000.0,9.36,0.15
543 Charlotte,e,8.46947,295.19818,111.49493,3.061569,0,0.1505787,189.8844,1/22/1999,2000.0,9.4,0.15
544 Jetta,e,8.3604,298.53574,341.28293,2.5909552,0,0.1542792,295.42052,1/22/1999,2000.0,9.9,0.15
545 Messalina,e,11.10756,334.58142,322.80141,3.1959098,0,0.1747936,292.91578,1/22/1999,2000.0,8.84,0.15
546 Herodias,e,14.86302,22.09397,108.65958,2.5985283,0,0.1141871,83.02785,1/22/1999,2000.0,9.7,0.15
547 Praxedis,e,16.87381,193.37995,195.53755,2.7752376,0,0.2349803,150.3193,1/22/1999,2000.0,9.52,0.15
548 Kressida,e,3.86924,108.58387,320.02418,2.2826591,0,0.1841574,98.73977,1/22/1999,2000.0,11.26,0.15
549 Jessonda,e,3.96504,291.67382,157.11337,2.6825774,0,0.2609093,135.67162,1/22/1999,2000.0,11.01,0.15
550 Senta,e,10.09813,270.8946,44.78693,2.5909752,0,0.2178943,304.40829,1/22/1999,2000.0,9.37,0.15
551 Ortrud,e,0.40338,6.30036,70.40451,2.9659798,0,0.124227,148.70451,1/22/1999,2000.0,9.57,0.15
554 Peraga,e,2.94121,295.73471,127.17698,2.3747074,0,0.1540433,291.98115,1/22/1999,2000.0,8.97,0.15
556 Phyllis,e,5.22952,286.29982,177.88832,2.4651106,0,0.1020054,110.43111,1/22/1999,2000.0,9.56,0.15
558 Carmen,e,8.37138,143.97183,316.68606,2.9073573,0,0.0397872,19.62584,1/22/1999,2000.0,9.09,0.15
559 Nanon,e,9.3098,112.2649,129.39266,2.7118927,0,0.0669154,315.98515,1/22/1999,2000.0,9.36,0.15
563 Suleika,e,10.24873,85.49828,336.84262,2.7131152,0,0.2354835,132.77822,1/22/1999,2000.0,8.5,0.15
564 Dudu,e,17.96552,71.00162,215.00323,2.7488536,0,0.2745919,163.75569,1/22/1999,2000.0,10.43,0.15
565 Marbachia,e,10.98828,226.12109,290.89877,2.4441835,0,0.1278263,262.26704,1/22/1999,2000.0,10.88,0.15
566 Stereoskopia,e,4.91499,80.63338,293.30496,3.3869585,0,0.1015117,249.51613,1/22/1999,2000.0,8.03,0.15
567 Eleutheria,e,9.27085,58.60732,137.02303,3.1319652,0,0.097176,358.9491,1/22/1999,2000.0,9.16,0.15
568 Cheruskia,e,18.36027,250.07165,172.08586,2.885554,0,0.1672569,318.7517,1/22/1999,2000.0,9.1,0.15
569 Misa,e,1.29532,302.04009,142.10152,2.6572903,0,0.1825633,116.20133,1/22/1999,2000.0,10.12,0.15
